CTC1_L_00522018-09
1 28831U 26450JA  26070.40839120  .00000000  00000+0  00000-0 0  9990
2 28831  97.9000 204.0000 0000000   0.0000 102.6667 14.79785908    12
CTC1_L_00522018-10
1 28832U 23725SS  26070.40839120  .00000000  00000+0  00000-0 0  9993
2 28832  97.9000 204.0000 0000000   0.0000 112.6667 14.79785908    14
CTC1_L_00522018-11
1 28833U 24071XP  26070.40839120  .00000000  00000+0  00000-0 0  9999
2 28833  97.9000 204.0000 0000000   0.0000 122.6667 14.79785908    16
CTC1_L_00522018-12
1 28834U 23823OF  26070.40839120  .00000000  00000+0  00000-0 0  9994
2 28834  97.9000 204.0000 0000000   0.0000 132.6667 14.79785908    18
CTC1_L_00522018-13
1 28835U 24657HH  26070.40839120  .00000000  00000+0  00000-0 0  9991
2 28835  97.9000 204.0000 0000000   0.0000 142.6667 14.79785908    10
CTC1_L_00522018-14
1 28836U 23762SU  26070.40839120  .00000000  00000+0  00000-0 0  9998
2 28836  97.9000 204.0000 0000000   0.0000 152.6667 14.79785908    12
CTC1_L_00522018-15
1 28837U 24163JQ  26070.40839120  .00000000  00000+0  00000-0 0  9995
2 28837  97.9000 204.0000 0000000   0.0000 162.6667 14.79785908    14
CTC1_L_00522018-16
1 28838U 26133OV  26070.40839120  .00000000  00000+0  00000-0 0  9995
2 28838  97.9000 204.0000 0000000   0.0000 172.6667 14.79785908    16
CTC1_L_00522018-17
1 28839U 26868IL  26070.40839120  .00000000  00000+0  00000-0 0  9991
2 28839  97.9000 204.0000 0000000   0.0000 182.6667 14.79785908    18
CTC1_L_00522018-18
1 28840U 22925QJ  26070.40839120  .00000000  00000+0  00000-0 0  9993
2 28840  97.9000 204.0000 0000000   0.0000 192.6667 14.79785908    11
CTC1_L_00522018-19
1 28841U 22695RK  26070.40839120  .00000000  00000+0  00000-0 0  9998
2 28841  97.9000 204.0000 0000000   0.0000 202.6667 14.79785908    14
CTC1_L_00522018-20
1 28842U 23816CH  26070.40839120  .00000000  00000+0  00000-0 0  9995
2 28842  97.9000 204.0000 0000000   0.0000 212.6667 14.79785908    16
CTC1_L_00522018-21
1 28843U 26731K   26070.40839120  .00000000  00000+0  00000-0 0  9995
2 28843  97.9000 204.0000 0000000   0.0000 222.6667 14.79785908    18
CTC1_L_00522018-22
1 28844U 26262YQ  26070.40839120  .00000000  00000+0  00000-0 0  9995
2 28844  97.9000 204.0000 0000000   0.0000 232.6667 14.79785908    10
CTC1_L_00522018-23
1 28845U 22294IT  26070.40839120  .00000000  00000+0  00000-0 0  9997
2 28845  97.9000 204.0000 0000000   0.0000 242.6667 14.79785908    12
CTC1_L_00522018-24
1 28846U 25011MZ  26070.40839120  .00000000  00000+0  00000-0 0  9998
2 28846  97.9000 204.0000 0000000   0.0000 252.6667 14.79785908    14
CTC1_L_00522018-25
1 28847U 22892IU  26070.40839120  .00000000  00000+0  00000-0 0  9993
2 28847  97.9000 204.0000 0000000   0.0000 262.6667 14.79785908    16
CTC1_L_00522018-26
1 28848U 24642XD  26070.40839120  .00000000  00000+0  00000-0 0  9999
2 28848  97.9000 204.0000 0000000   0.0000 272.6667 14.79785908    18
CTC1_L_00522018-27
1 28849U 25165YN  26070.40839120  .00000000  00000+0  00000-0 0  9991
2 28849  97.9000 204.0000 0000000   0.0000 282.6667 14.79785908    10
CTC1_L_00522018-28
1 28850U 26236QH  26070.40839120  .00000000  00000+0  00000-0 0  9993
2 28850  97.9000 204.0000 0000000   0.0000 292.6667 14.79785908    13
CTC1_L_00522018-29
1 28851U 25639CH  26070.40839120  .00000000  00000+0  00000-0 0  9990
2 28851  97.9000 204.0000 0000000   0.0000 302.6667 14.79785908    16
CTC1_L_00522018-30
1 28852U 24039GO  26070.40839120  .00000000  00000+0  00000-0 0  9994
2 28852  97.9000 204.0000 0000000   0.0000 312.6667 14.79785908    18
CTC1_L_00522018-31
1 28853U 25176SR  26070.40839120  .00000000  00000+0  00000-0 0  9998
2 28853  97.9000 204.0000 0000000   0.0000 322.6667 14.79785908    10
CTC1_L_00522018-32
1 28854U 26794MI  26070.40839120  .00000000  00000+0  00000-0 0  9996
2 28854  97.9000 204.0000 0000000   0.0000 332.6667 14.79785908    12
CTC1_L_00522018-33
1 28855U 22793TM  26070.40839120  .00000000  00000+0  00000-0 0  9992
2 28855  97.9000 204.0000 0000000   0.0000 342.6667 14.79785908    14
CTC1_L_00522018-34
1 28856U 22546ID  26070.40839120  .00000000  00000+0  00000-0 0  9999
2 28856  97.9000 204.0000 0000000   0.0000 352.6667 14.79785908    16
CTC1_L_00522018-35
1 28857U 24249RM  26070.40839120  .00000000  00000+0  00000-0 0  9992
2 28857  97.9000 204.0000 0000000   0.0000   2.6667 14.79785908    19
CTC1_L_00522018-36
1 28858U 22344WE  26070.40839120  .00000000  00000+0  00000-0 0  9997
2 28858  97.9000 204.0000 0000000   0.0000  12.6667 14.79785908    11
CTC1_L_00522019-01
1 28859U 26086TG  26070.40839120  .00000000  00000+0  00000-0 0  9995
2 28859  97.9000 216.0000 0000000   0.0000  24.0000 14.79785908    13
CTC1_L_00522019-02
1 28860U 26393CW  26070.40839120  .00000000  00000+0  00000-0 0  9998
2 28860  97.9000 216.0000 0000000   0.0000  34.0000 14.79785908    16
CTC1_L_00522019-03
1 28861U 26575OX  26070.40839120  .00000000  00000+0  00000-0 0  9991
2 28861  97.9000 216.0000 0000000   0.0000  44.0000 14.79785908    18
CTC1_L_00522019-04
1 28862U 24903UV  26070.40839120  .00000000  00000+0  00000-0 0  9995
2 28862  97.9000 216.0000 0000000   0.0000  54.0000 14.79785908    10
CTC1_L_00522019-05
1 28863U 24275ON  26070.40839120  .00000000  00000+0  00000-0 0  9998
2 28863  97.9000 216.0000 0000000   0.0000  64.0000 14.79785908    12
CTC1_L_00522019-06
1 28864U 24943VI  26070.40839120  .00000000  00000+0  00000-0 0  9991
2 28864  97.9000 216.0000 0000000   0.0000  74.0000 14.79785908    14
CTC1_L_00522019-07
1 28865U 24303TW  26070.40839120  .00000000  00000+0  00000-0 0  9992
2 28865  97.9000 216.0000 0000000   0.0000  84.0000 14.79785908    16
CTC1_L_00522019-08
1 28866U 26862ZE  26070.40839120  .00000000  00000+0  00000-0 0  9995
2 28866  97.9000 216.0000 0000000   0.0000  94.0000 14.79785908    18
CTC1_L_00522019-09
1 28867U 24307UY  26070.40839120  .00000000  00000+0  00000-0 0  9998
2 28867  97.9000 216.0000 0000000   0.0000 104.0000 14.79785908    11
CTC1_L_00522019-10
1 28868U 22101TI  26070.40839120  .00000000  00000+0  00000-0 0  9999
2 28868  97.9000 216.0000 0000000   0.0000 114.0000 14.79785908    13
CTC1_L_00522019-11
1 28869U 24774FS  26070.40839120  .00000000  00000+0  00000-0 0  9998
2 28869  97.9000 216.0000 0000000   0.0000 124.0000 14.79785908    15
CTC1_L_00522019-12
1 28870U 25002CJ  26070.40839120  .00000000  00000+0  00000-0 0  9995
2 28870  97.9000 216.0000 0000000   0.0000 134.0000 14.79785908    18
CTC1_L_00522019-13
1 28871U 26716LQ  26070.40839120  .00000000  00000+0  00000-0 0  9999
2 28871  97.9000 216.0000 0000000   0.0000 144.0000 14.79785908    10
CTC1_L_00522019-14
1 28872U 26654GM  26070.40839120  .00000000  00000+0  00000-0 0  9991
2 28872  97.9000 216.0000 0000000   0.0000 154.0000 14.79785908    12
CTC1_L_00522019-15
1 28873U 24020GY  26070.40839120  .00000000  00000+0  00000-0 0  9997
2 28873  97.9000 216.0000 0000000   0.0000 164.0000 14.79785908    14
CTC1_L_00522019-16
1 28874U 26850RN  26070.40839120  .00000000  00000+0  00000-0 0  9991
2 28874  97.9000 216.0000 0000000   0.0000 174.0000 14.79785908    16
CTC1_L_00522019-17
1 28875U 23906UA  26070.40839120  .00000000  00000+0  00000-0 0  9991
2 28875  97.9000 216.0000 0000000   0.0000 184.0000 14.79785908    18
CTC1_L_00522019-18
1 28876U 25380CW  26070.40839120  .00000000  00000+0  00000-0 0  9990
2 28876  97.9000 216.0000 0000000   0.0000 194.0000 14.79785908    10
CTC1_L_00522019-19
1 28877U 26589DQ  26070.40839120  .00000000  00000+0  00000-0 0  9993
2 28877  97.9000 216.0000 0000000   0.0000 204.0000 14.79785908    13
CTC1_L_00522019-20
1 28878U 22105RC  26070.40839120  .00000000  00000+0  00000-0 0  9994
2 28878  97.9000 216.0000 0000000   0.0000 214.0000 14.79785908    15
CTC1_L_00522019-21
1 28879U 23674E   26070.40839120  .00000000  00000+0  00000-0 0  9997
2 28879  97.9000 216.0000 0000000   0.0000 224.0000 14.79785908    17
CTC1_L_00522019-22
1 28880U 22493GF  26070.40839120  .00000000  00000+0  00000-0 0  9997
2 28880  97.9000 216.0000 0000000   0.0000 234.0000 14.79785908    10
CTC1_L_00522019-23
1 28881U 23628CI  26070.40839120  .00000000  00000+0  00000-0 0  9999
2 28881  97.9000 216.0000 0000000   0.0000 244.0000 14.79785908    12
CTC1_L_00522019-24
1 28882U 26238PU  26070.40839120  .00000000  00000+0  00000-0 0  9990
2 28882  97.9000 216.0000 0000000   0.0000 254.0000 14.79785908    14
CTC1_L_00522019-25
1 28883U 22471WR  26070.40839120  .00000000  00000+0  00000-0 0  9996
2 28883  97.9000 216.0000 0000000   0.0000 264.0000 14.79785908    16
CTC1_L_00522019-26
1 28884U 24779QT  26070.40839120  .00000000  00000+0  00000-0 0  9990
2 28884  97.9000 216.0000 0000000   0.0000 274.0000 14.79785908    18
CTC1_L_00522019-27
1 28885U 26368MY  26070.40839120  .00000000  00000+0  00000-0 0  9997
2 28885  97.9000 216.0000 0000000   0.0000 284.0000 14.79785908    10
CTC1_L_00522019-28
1 28886U 26259DJ  26070.40839120  .00000000  00000+0  00000-0 0  9997
2 28886  97.9000 216.0000 0000000   0.0000 294.0000 14.79785908    12
CTC1_L_00522019-29
1 28887U 22894LN  26070.40839120  .00000000  00000+0  00000-0 0  9999
2 28887  97.9000 216.0000 0000000   0.0000 304.0000 14.79785908    15
CTC1_L_00522019-30
1 28888U 23872DI  26070.40839120  .00000000  00000+0  00000-0 0  9997
2 28888  97.9000 216.0000 0000000   0.0000 314.0000 14.79785908    17
CTC1_L_00522019-31
1 28889U 26309RX  26070.40839120  .00000000  00000+0  00000-0 0  9996
2 28889  97.9000 216.0000 0000000   0.0000 324.0000 14.79785908    19
CTC1_L_00522019-32
1 28890U 24554YZ  26070.40839120  .00000000  00000+0  00000-0 0  9998
2 28890  97.9000 216.0000 0000000   0.0000 334.0000 14.79785908    12
CTC1_L_00522019-33
1 28891U 24544RZ  26070.40839120  .00000000  00000+0  00000-0 0  9998
2 28891  97.9000 216.0000 0000000   0.0000 344.0000 14.79785908    14
CTC1_L_00522019-34
1 28892U 22279ON  26070.40839120  .00000000  00000+0  00000-0 0  9992
2 28892  97.9000 216.0000 0000000   0.0000 354.0000 14.79785908    16
